GLOBALSTAR M035         
1 25851U 99037A   25186.48272626 -.00000076  00000+0 -46835-3 0  9991
2 25851  51.9981  14.1651 0013969  14.5838   4.5778 11.04538616 98284
GLOBALSTAR M032         
1 25852U 99037B   25186.37541191 -.00000026  00000+0  12972-2 0  9994
2 25852  51.9909 198.3471 0012216 197.6916 162.3459 11.19062025136828
GLOBALSTAR M030         
1 25854U 99037D   25186.34282753 -.00000053  00000+0  46219-3 0  9991
2 25854  51.9848 162.0449 0003098  73.0502 287.0654 11.55108837152148
GLOBALSTAR M048         
1 25872U 99041A   25186.64098265 -.00000069  00000+0  37679-4 0  9990
2 25872  51.9383 292.1241 0013588 214.6528 255.2138 11.33857679127072
GLOBALSTAR M026         
1 25873U 99041B   25186.32707041  .00000030  00000+0  34719-2 0  9992
2 25873  51.9991 132.2803 0002265 313.5383 209.2396 11.06841411150498
GLOBALSTAR M043         
1 25874U 99041C   25186.64189642 -.00000093  00000+0 -72561-3 0  9998
2 25874  51.9422  40.4994 0013462 346.7284  50.5873 11.25695343124959
GLOBALSTAR M028         
1 25875U 99041D   25186.29595059 -.00000091  00000+0  60487-4 0  9995
2 25875  51.9608 139.0669 0063378 110.4546 250.3134 12.50584340192440
